      2.10          N: GNSS NAV DATA                        RINEX VERSION / TYPE
fic2rin                                 06/09/2018 00:08:39 PGM / RUN BY / DATE
                                                            END OF HEADER
 1 18  6  9  0  0  0.0-5.458807572722e-05-3.410605131648e-12 0.000000000000e+00
    1.160000000000e+02 1.618750000000e+01 4.562690054355e-09-3.009367347201e+00
    7.133930921555e-07 7.861824473366e-03 6.830319762230e-06 5.153666507721e+03
    5.184000000000e+05-9.872019290924e-08-2.875883365114e+00-1.713633537292e-07
    9.716811206361e-01 2.540000000000e+02 6.361357935178e-01-7.989975671701e-09
    3.825159333240e-10 1.000000000000e+00 2.004000000000e+03 0.000000000000e+00
    3.400000000000e+00 0.000000000000e+00 5.587935447693e-09 1.160000000000e+02
    5.112060000000e+05 4.000000000000e+00
 2 18  6  9  0  0  0.0 9.143026545644e-05-1.091393642128e-11 0.000000000000e+00
    7.400000000000e+01 2.046875000000e+01 4.989850704453e-09-2.677751156181e+00
    1.121312379837e-06 1.788019307423e-02 6.102025508881e-06 5.153752510071e+03
    5.184000000000e+05 3.706663846970e-07-2.937245989137e+00 5.029141902924e-08
    9.507600198854e-01 2.524062500000e+02-1.853008709273e+00-8.108552039454e-09
    4.603763193788e-10 1.000000000000e+00 2.004000000000e+03 0.000000000000e+00
    2.400000000000e+00 0.000000000000e+00-2.048909664154e-08 7.400000000000e+01
    5.112060000000e+05 4.000000000000e+00
 3 18  6  9  0  0  0.0 8.571147918701e-05 6.821210263297e-12 0.000000000000e+00
    7.400000000000e+01-5.325000000000e+01 4.794128266114e-09 2.392337749487e+00
   -2.847984433174e-06 1.416403334588e-03 6.711110472679e-06 5.153741592407e+03
    5.184000000000e+05-2.235174179077e-08-1.833177186982e+00-1.490116119385e-08
    9.607210524938e-01 2.495625000000e+02 4.383560732328e-01-8.191055476053e-09
   -3.303709041314e-10 1.000000000000e+00 2.004000000000e+03 0.000000000000e+00
    2.400000000000e+00 0.000000000000e+00 2.328306436539e-09 7.400000000000e+01
    5.112060000000e+05 4.000000000000e+00
 8 18  6  9  0  0  0.0-1.041055656970e-04-1.250555214938e-12 0.000000000000e+00
    8.000000000000e+00-3.040625000000e+01 4.153387290966e-09-5.364138877458e-01
   -1.683831214905e-06 3.466726746410e-03 1.033768057823e-05 5.153583755493e+03
    5.184000000000e+05 2.048909664154e-08 2.342772733225e+00-5.401670932770e-08
    9.693404575609e-01 1.806875000000e+02-4.186428688302e-01-7.939973588913e-09
    1.803646557690e-10 1.000000000000e+00 2.004000000000e+03 0.000000000000e+00
    2.400000000000e+00 0.000000000000e+00 5.122274160385e-09 8.000000000000e+00
    5.112060000000e+05 4.000000000000e+00
 5 18  6  9  0  0  0.0-6.480142474174e-06 6.821210263297e-13 0.000000000000e+00
    1.100000000000e+01-4.771875000000e+01 5.147000107500e-09-8.870599804659e-03
   -2.471730113029e-06 5.383036797866e-03 6.241723895073e-06 5.153716550827e+03
    5.184000000000e+05-5.029141902924e-08-1.855182789867e+00 2.980232238770e-08
    9.476231358501e-01 2.483437500000e+02 6.153000628145e-01-8.471067139663e-09
   -3.625151002090e-10 1.000000000000e+00 2.004000000000e+03 0.000000000000e+00
    2.400000000000e+00 0.000000000000e+00-1.117587089539e-08 1.100000000000e+01
    5.112060000000e+05 4.000000000000e+00
 7 18  6  9  0  0  0.0 1.784274354577e-04-6.252776074689e-12 0.000000000000e+00
    1.200000000000e+01 7.815625000000e+01 4.589119726685e-09 2.593218452335e+00
    3.937631845474e-06 1.171023154166e-02 6.141141057014e-06 5.153659784317e+03
    5.184000000000e+05-1.136213541031e-07 2.781535616180e-01-1.620501279831e-07
    9.588302630605e-01 2.592187500000e+02-2.527485443937e+00-8.079265105250e-09
    2.057228548969e-10 1.000000000000e+00 2.004000000000e+03 0.000000000000e+00
    2.400000000000e+00 0.000000000000e+00-1.117587089539e-08 1.200000000000e+01
    5.112060000000e+05 4.000000000000e+00
22 18  6  9  0  0  0.0-4.195580258965e-04-1.261923898710e-11 0.000000000000e+00
    7.000000000000e+00-4.956250000000e+01 5.682022393325e-09-1.521624139147e+00
   -2.520158886909e-06 7.369088009000e-03 6.169080734253e-06 5.153791023254e+03
    5.184000000000e+05-2.235174179077e-08-1.893230873831e+00 2.030283212662e-07
    9.248433186822e-01 2.394687500000e+02-1.530743187792e+00-8.672504101749e-09
   -3.203704875739e-10 1.000000000000e+00 2.004000000000e+03 0.000000000000e+00
    2.400000000000e+00 0.000000000000e+00-1.769512891769e-08 7.000000000000e+00
    5.112060000000e+05 4.000000000000e+00
24 18  6  9  0  0  0.0-5.086837336421e-05-4.547473508865e-13 0.000000000000e+00
    2.600000000000e+01 7.625000000000e+01 4.914133264804e-09-2.736409756073e+00
    3.976747393608e-06 6.939182407223e-03 5.422160029411e-06 5.153644632339e+03
    5.184000000000e+05 1.676380634308e-08 2.182328818184e-01-1.676380634308e-08
    9.419085067729e-01 2.653750000000e+02 5.436236937089e-01-8.296417007641e-09
    2.264380034803e-10 1.000000000000e+00 2.004000000000e+03 0.000000000000e+00
    2.400000000000e+00 0.000000000000e+00 2.793967723846e-09 2.600000000000e+01
    5.112060000000e+05 4.000000000000e+00
25 18  6  9  0  0  0.0-5.979514680803e-04-5.911715561524e-12 0.000000000000e+00
    7.600000000000e+01-3.190625000000e+01 4.326965949786e-09 1.530129176205e+00
   -1.771375536919e-06 7.489021751098e-03 5.630776286125e-06 5.153634681702e+03
    5.184000000000e+05-1.434236764908e-07 1.311082328230e+00 6.891787052155e-08
    9.739639779662e-01 2.763437500000e+02 8.652980251245e-01-8.201413050345e-09
   -2.350097891010e-10 1.000000000000e+00 2.004000000000e+03 0.000000000000e+00
    2.400000000000e+00 0.000000000000e+00 6.053596735001e-09 7.600000000000e+01
    5.112060000000e+05 4.000000000000e+00
23 18  6  9  0  0  0.0-2.161175943911e-04 4.547473508865e-13 0.000000000000e+00
    6.100000000000e+01 1.306250000000e+01 4.599834458711e-09-2.163304656974e+00
    5.457550287247e-07 1.258180139121e-02 1.151114702225e-05 5.153792621613e+03
    5.184000000000e+05 1.061707735062e-07-8.008748067818e-01-1.117587089539e-07
    9.434653588220e-01 1.451562500000e+02-2.356653878653e+00-7.860684571922e-09
   -3.643008888800e-11 1.000000000000e+00 2.004000000000e+03 0.000000000000e+00
    2.400000000000e+00 0.000000000000e+00-2.002343535423e-08 6.100000000000e+01
    5.112060000000e+05 4.000000000000e+00
13 18  6  9  0  0  0.0-9.367289021611e-05 4.547473508865e-13 0.000000000000e+00
    7.600000000000e+01 3.475000000000e+01 4.067312277025e-09-2.191471593897e+00
    1.773238182068e-06 3.339306800626e-03 1.107342541218e-05 5.153666465759e+03
    5.184000000000e+05 8.381903171539e-08-6.672647591927e-01-9.313225746155e-09
    9.684742081753e-01 1.729062500000e+02 1.569040005866e+00-7.709249692622e-09
   -1.739358165535e-10 1.000000000000e+00 2.004000000000e+03 0.000000000000e+00
    2.400000000000e+00 0.000000000000e+00-1.117587089539e-08 7.600000000000e+01
    5.112060000000e+05 4.000000000000e+00
15 18  6  9  0  0  0.0-3.529493696988e-04 6.821210263297e-13 0.000000000000e+00
    7.700000000000e+01 2.028125000000e+01 5.037352683102e-09-1.708763197509e+00
    9.834766387939e-07 1.027563598473e-02 1.051835715771e-05 5.153754404068e+03
    5.184000000000e+05 1.117587089539e-07-8.701702050304e-01-1.732259988785e-07
    9.281308437808e-01 1.600000000000e+02 6.802966221592e-01-8.077836474313e-09
   -1.525063525017e-10 1.000000000000e+00 2.004000000000e+03 0.000000000000e+00
    2.400000000000e+00 0.000000000000e+00-1.117587089539e-08 7.700000000000e+01
    5.112060000000e+05 4.000000000000e+00
17 18  6  9  0  0  0.0-9.012361988425e-05 3.637978807092e-12 0.000000000000e+00
    7.700000000000e+01-1.868750000000e+01 3.979451474413e-09-9.294562124506e-01
   -7.506459951401e-07 1.234526163898e-02 1.012347638607e-05 5.153574464798e+03
    5.184000000000e+05-1.415610313416e-07 2.405460392372e+00 2.048909664154e-07
    9.828547221528e-01 2.017812500000e+02-1.778127341204e+00-7.893543083468e-09
    1.775073938955e-10 1.000000000000e+00 2.004000000000e+03 0.000000000000e+00
    2.400000000000e+00 0.000000000000e+00-1.117587089539e-08 7.700000000000e+01
    5.112060000000e+05 4.000000000000e+00
21 18  6  9  0  0  0.0-3.840224817395e-04 5.229594535194e-12 0.000000000000e+00
    7.700000000000e+01 1.003125000000e+01 5.281291415557e-09 1.470529141716e+00
    6.705522537231e-08 2.436869381927e-02 6.116926670074e-06 5.153689167023e+03
    5.184000000000e+05 1.117587089539e-08-2.930457932215e+00-6.817281246185e-07
    9.443176592838e-01 2.559687500000e+02-1.552404803046e+00-8.486067764499e-09
    4.196603376804e-10 1.000000000000e+00 2.004000000000e+03 0.000000000000e+00
    2.400000000000e+00 0.000000000000e+00-1.024454832077e-08 7.700000000000e+01
    5.112060000000e+05 4.000000000000e+00
32 18  6  9  0  0  0.0-4.972303286195e-04 6.252776074689e-12 0.000000000000e+00
    6.700000000000e+01 2.762500000000e+01 4.459114311438e-09-1.265304998518e-01
    1.313164830208e-06 2.192305517383e-03 1.132301986217e-05 5.153677198410e+03
    5.184000000000e+05 4.656612873077e-08-7.941086087825e-01 4.656612873077e-08
    9.570220568158e-01 1.581875000000e+02-2.547947704821e+00-8.002119034663e-09
   -1.682212928064e-10 1.000000000000e+00 2.004000000000e+03 0.000000000000e+00
    2.400000000000e+00 0.000000000000e+00 4.656612873077e-10 6.700000000000e+01
    5.112060000000e+05 4.000000000000e+00
26 18  6  9  0  0  0.0-1.219543628395e-04 1.250555214938e-11 0.000000000000e+00
    8.400000000000e+01-3.818750000000e+01 4.714482091388e-09 9.975147939237e-01
   -1.985579729080e-06 2.786888042465e-03 5.228444933891e-06 5.153668823242e+03
    5.184000000000e+05 2.235174179077e-08 1.288893785977e+00 8.195638656616e-08
    9.555043568432e-01 2.757812500000e+02 1.246617419648e-01-8.354633718315e-09
   -2.550106222160e-10 1.000000000000e+00 2.004000000000e+03 0.000000000000e+00
    2.400000000000e+00 0.000000000000e+00 7.450580596924e-09 8.400000000000e+01
    5.112060000000e+05 4.000000000000e+00
